{"type":"Feature","properties":{"name":"India","source":"Survey of India outline (user-supplied shapefile), LCC_WGS84 → WGS84"},"geometry":{"type":"MultiPolygon","coordinates":[[[[93.8374,7.2405],[93.8371,7.2181],[93.8699,7.2047],[93.881,7.0897],[93.9018,7.0815],[93.9124,7.0251],[93.9446,7.0014],[93.9099,6.9993],[93.9414,6.9543],[93.9154,6.9473],[93.8915,6.9012],[93.8977,6.8135],[93.876,6.7932],[93.847,6.8113],[93.8472,6.835],[93.8225,6.7528],[93.7992,6.7662],[93.8099,6.812],[93.7955,6.8095],[93.7626,6.8629],[93.7769,6.8805],[93.7317,6.9219],[93.741,6.9563],[93.7156,6.9895],[93.7338,6.975],[93.7376,7],[93.7331,6.975],[93.696,6.992],[93.7001,7.0254],[93.7018,7.011],[93.655,7.0055],[93.667,7.0226],[93.6444,7.1007],[93.6673,7.1126],[93.6432,7.1273],[93.665,7.142],[93.6763,7.193],[93.7222,7.189],[93.741,7.2062],[93.7392,7.1939],[93.7493,7.2159],[93.7921,7.2083],[93.7962,7.2354],[93.8374,7.2405]]],[[[93.6995,7.4474],[93.7438,7.3614],[93.6358,7.2428],[93.6071,7.3105],[93.6233,7.3228],[93.6194,7.3743],[93.6549,7.3852],[93.6563,7.366],[93.6703,7.3912],[93.7018,7.3936],[93.6995,7.4474]]],[[[73.0534,8.2745],[73.017,8.2766],[73.047,8.2767],[73.0776,8.3255],[73.0534,8.2745]]],[[[93.3695,8.0235],[93.4014,8.0088],[93.4036,7.9616],[93.4209,7.9686],[93.4519,7.9393],[93.4662,7.8911],[93.4545,7.8724],[93.412,7.9069],[93.368,7.8777],[93.335,7.9001],[93.3418,7.9469],[93.322,7.9229],[93.3079,7.9339],[93.32,8.0074],[93.3695,8.0235]]],[[[93.5408,8.0285],[93.5733,7.9942],[93.5694,7.9283],[93.4947,7.9932],[93.5221,8.0262],[93.5438,7.9914],[93.5408,8.0285]]],[[[93.5759,8.1192],[93.5848,8.0381],[93.5626,8.0675],[93.5782,8.0742],[93.5608,8.093],[93.5677,8.1196],[93.5529,8.1204],[93.5759,8.1192]]],[[[93.5133,8.2351],[93.5346,8.229],[93.5365,8.2024],[93.4928,8.1462],[93.5378,8.09],[93.5408,8.0361],[93.5213,8.0506],[93.4985,8.0359],[93.4911,7.9985],[93.4759,8.0461],[93.4991,8.038],[93.4938,8.0575],[93.5018,8.069],[93.5157,8.0533],[93.5212,8.0804],[93.5046,8.0857],[93.4757,8.0529],[93.4697,8.0886],[93.4879,8.0951],[93.4588,8.1021],[93.4375,8.1704],[93.5133,8.2351]]],[[[93.1172,8.3565],[93.1335,8.3465],[93.1197,8.2728],[93.1928,8.2186],[93.1909,8.1961],[93.1116,8.2236],[93.0758,8.2735],[93.0849,8.3408],[93.1172,8.3565]]],[[[93.6059,8.5737],[93.6323,8.4677],[93.6172,8.4681],[93.613,8.4232],[93.6059,8.5737]]],[[[92.786,9.245],[92.8177,9.212],[92.8273,9.1388],[92.7991,9.1206],[92.7273,9.1249],[92.7178,9.2146],[92.7637,9.2158],[92.7714,9.2588],[92.786,9.245]]],[[[92.5184,10.9008],[92.5295,10.8671],[92.5422,10.8592],[92.5338,10.89],[92.5625,10.8622],[92.5674,10.8103],[92.5516,10.8035],[92.5792,10.7854],[92.5712,10.8106],[92.5871,10.7881],[92.5981,10.6792],[92.5803,10.6808],[92.5824,10.658],[92.5385,10.6149],[92.5699,10.5788],[92.5133,10.5108],[92.4351,10.5489],[92.3876,10.5315],[92.4191,10.6158],[92.3814,10.6703],[92.3731,10.7827],[92.395,10.7856],[92.3988,10.7439],[92.4193,10.7726],[92.3969,10.7631],[92.4106,10.7783],[92.3956,10.7863],[92.4573,10.8417],[92.4545,10.8669],[92.4965,10.8971],[92.511,10.8718],[92.4768,10.8618],[92.508,10.8628],[92.503,10.8977],[92.5184,10.9008]]],[[[92.6362,11.5159],[92.6743,11.4904],[92.6846,11.4361],[92.6337,11.4037],[92.6748,11.3998],[92.6907,11.3745],[92.6637,11.3528],[92.5977,11.345],[92.5796,11.3674],[92.5857,11.4],[92.6218,11.4045],[92.6107,11.4723],[92.6362,11.5159]]],[[[92.2201,11.5945],[92.2693,11.5852],[92.2601,11.5172],[92.2104,11.5308],[92.2028,11.5874],[92.2201,11.5945]]],[[[92.964,12.0501],[92.9748,12.0162],[92.973,12.0432],[93.0148,12.0273],[93.0071,12.003],[93.0541,11.9028],[93.0441,11.8837],[92.9923,11.9345],[93.0154,11.9383],[93.0069,11.9582],[92.9751,11.9455],[92.9584,11.9809],[92.923,11.9984],[92.964,12.0501]]],[[[92.99,12.1098],[93.005,12.1006],[92.9941,12.0437],[92.9564,12.0731],[92.9718,12.0866],[92.9579,12.1085],[92.99,12.1098]]],[[[93.0284,12.1666],[93.0322,12.1053],[93.054,12.0766],[93.0434,12.0426],[93.0051,12.0768],[92.9953,12.1317],[93.0284,12.1666]]],[[[92.6963,12.2389],[92.7092,12.1478],[92.7194,12.1797],[92.7567,12.1757],[92.7254,12.0959],[92.7361,12.0788],[92.7228,12.0644],[92.7369,12.0781],[92.7382,12.0572],[92.6968,12.0402],[92.715,12.0517],[92.7104,12.031],[92.7273,12.0543],[92.74,12.0286],[92.7251,12.0233],[92.7705,11.9986],[92.7221,11.9935],[92.7316,11.9711],[92.7152,11.9671],[92.7105,11.9331],[92.7251,11.8973],[92.7039,11.9008],[92.7242,11.8912],[92.7064,11.8644],[92.7233,11.8768],[92.7242,11.8566],[92.7017,11.8143],[92.7008,11.8296],[92.6952,11.8129],[92.6547,11.8338],[92.6919,11.8137],[92.6724,11.7828],[92.6975,11.8125],[92.7058,11.7927],[92.7443,11.9321],[92.783,11.9369],[92.79,11.8855],[92.7545,11.7006],[92.7434,11.7115],[92.7447,11.6904],[92.7165,11.7054],[92.7109,11.6932],[92.6965,11.7189],[92.69,11.6977],[92.6822,11.7141],[92.6863,11.6922],[92.7057,11.7001],[92.7077,11.6705],[92.6601,11.6522],[92.6912,11.6225],[92.6729,11.6074],[92.6906,11.6274],[92.6864,11.603],[92.7016,11.6177],[92.6941,11.6529],[92.7282,11.6582],[92.7144,11.6784],[92.756,11.665],[92.7102,11.4774],[92.6969,11.5058],[92.6675,11.5018],[92.6452,11.5225],[92.6463,11.5724],[92.6324,11.5808],[92.6165,11.5634],[92.6018,11.6086],[92.6447,11.6353],[92.6304,11.6519],[92.6304,11.6283],[92.6081,11.6324],[92.5977,11.6491],[92.5913,11.7383],[92.5581,11.6923],[92.5587,11.7727],[92.5496,11.8022],[92.5407,11.7855],[92.5294,11.795],[92.5496,11.8097],[92.5317,11.8059],[92.545,11.8433],[92.5238,11.8074],[92.5057,11.8245],[92.514,11.8724],[92.5276,11.8725],[92.5202,11.8986],[92.5641,11.9508],[92.5829,11.877],[92.599,11.8996],[92.6103,11.8473],[92.6003,11.8789],[92.6204,11.9311],[92.5987,11.9045],[92.5926,11.9185],[92.6282,12.043],[92.622,12.1014],[92.6604,12.2149],[92.6553,12.1801],[92.674,12.2178],[92.6812,12.1918],[92.6963,12.2389]]],[[[93.0823,12.0788],[93.0484,12.1118],[93.0684,12.1215],[93.0353,12.1321],[93.0691,12.2122],[93.0879,12.1951],[93.0763,12.1797],[93.0919,12.1819],[93.0845,12.1193],[93.1016,12.1288],[93.0823,12.0788]]],[[[92.8105,12.313],[92.8321,12.292],[92.847,12.3037],[92.8538,12.2812],[92.849,12.3021],[92.8722,12.3017],[92.8634,12.2868],[92.8913,12.2664],[92.8752,12.2506],[92.862,12.2636],[92.8579,12.2445],[92.8829,12.1977],[92.8276,12.203],[92.8406,12.2194],[92.8026,12.2326],[92.8405,12.2191],[92.8268,12.203],[92.8541,12.191],[92.8548,12.1618],[92.8445,12.1475],[92.8224,12.1781],[92.8208,12.1598],[92.8011,12.1706],[92.8269,12.1561],[92.8164,12.1246],[92.8015,12.132],[92.8181,12.1132],[92.7836,12.106],[92.8008,12.0935],[92.7634,12.0632],[92.7634,12.0996],[92.7472,12.0741],[92.7378,12.0975],[92.7708,12.2416],[92.7411,12.2454],[92.7494,12.2741],[92.7632,12.2625],[92.7877,12.2802],[92.7708,12.313],[92.8105,12.313]]],[[[92.9335,12.311],[92.943,12.2748],[92.9222,12.2293],[92.9009,12.2882],[92.9134,12.3041],[92.9275,12.2781],[92.9335,12.311]]],[[[92.9562,12.4346],[92.9302,12.3568],[92.9161,12.3636],[92.9248,12.4041],[92.9562,12.4346]]],[[[92.7075,12.8301],[92.7166,12.7192],[92.6937,12.7976],[92.7075,12.8301]]],[[[92.8975,12.9268],[92.9004,12.9115],[92.9223,12.9154],[92.9059,12.887],[92.9246,12.8879],[92.9264,12.8581],[92.9412,12.856],[92.9244,12.8011],[92.9243,12.8295],[92.9491,12.8382],[92.9511,12.7952],[92.9264,12.7744],[92.9499,12.7701],[92.98,12.7094],[92.9639,12.7044],[92.9567,12.6242],[92.9297,12.6169],[92.9588,12.6196],[92.9688,12.4967],[92.9272,12.4904],[92.9218,12.4657],[92.9143,12.5],[92.9078,12.4672],[92.9578,12.4727],[92.9446,12.4513],[92.9124,12.4506],[92.9108,12.4054],[92.8888,12.4638],[92.8836,12.4425],[92.8804,12.4713],[92.8688,12.4462],[92.8432,12.4708],[92.8355,12.5006],[92.8551,12.5098],[92.8158,12.4868],[92.834,12.4885],[92.8405,12.4714],[92.8256,12.472],[92.8348,12.4802],[92.8993,12.4168],[92.8848,12.4313],[92.874,12.4134],[92.8596,12.4368],[92.8457,12.4235],[92.836,12.4436],[92.8215,12.4341],[92.8153,12.4547],[92.8195,12.435],[92.7958,12.4379],[92.7866,12.4839],[92.791,12.4691],[92.7719,12.471],[92.7982,12.4641],[92.7872,12.4371],[92.8296,12.4283],[92.815,12.4249],[92.8339,12.4105],[92.7991,12.4008],[92.8157,12.4164],[92.8384,12.4086],[92.8216,12.4023],[92.8197,12.3891],[92.8416,12.3914],[92.8231,12.3742],[92.8423,12.3918],[92.8611,12.3694],[92.8446,12.3632],[92.8833,12.357],[92.899,12.3338],[92.8479,12.3435],[92.8542,12.3268],[92.8319,12.3355],[92.8601,12.3192],[92.8315,12.3027],[92.7787,12.3131],[92.7704,12.3338],[92.7528,12.2961],[92.7341,12.3024],[92.7492,12.3656],[92.7195,12.3003],[92.699,12.3283],[92.6951,12.4004],[92.7074,12.594],[92.684,12.609],[92.7026,12.6048],[92.7182,12.6443],[92.7224,12.6154],[92.7275,12.6362],[92.7477,12.6205],[92.7328,12.6571],[92.7731,12.6704],[92.7784,12.6412],[92.7619,12.6244],[92.7785,12.6379],[92.7789,12.58],[92.7897,12.7255],[92.7812,12.7404],[92.7616,12.7228],[92.7818,12.7337],[92.7694,12.6731],[92.732,12.6726],[92.7458,12.7228],[92.7221,12.8252],[92.7305,12.8362],[92.7377,12.8044],[92.7391,12.837],[92.7426,12.8207],[92.7561,12.8468],[92.7655,12.8188],[92.7727,12.8426],[92.7838,12.7621],[92.7804,12.8051],[92.7898,12.8147],[92.7947,12.7937],[92.8006,12.8128],[92.7892,12.8289],[92.7821,12.8092],[92.7818,12.86],[92.793,12.8445],[92.7884,12.8615],[92.8004,12.8485],[92.8044,12.8611],[92.7908,12.8899],[92.8407,12.8916],[92.8397,12.8614],[92.8539,12.8771],[92.8284,12.8101],[92.8498,12.8731],[92.8624,12.8636],[92.8713,12.8924],[92.9001,12.9028],[92.8975,12.9268]]],[[[92.6948,12.9914],[92.7193,12.981],[92.7207,12.8896],[92.7016,12.8773],[92.7187,12.8748],[92.6996,12.8402],[92.6711,12.8376],[92.6881,12.817],[92.6673,12.7826],[92.6469,12.862],[92.679,12.9422],[92.6697,12.9661],[92.6948,12.9914]]],[[[93.0074,12.9992],[92.9814,12.9679],[92.9821,12.932],[92.9532,12.9343],[92.9726,12.9464],[92.9537,12.9579],[92.9578,12.9895],[92.972,12.9703],[93.0074,12.9992]]],[[[93.06,13.3691],[93.0881,13.346],[93.0781,13.2963],[93.0585,13.3289],[93.0384,13.3222],[93.0384,13.3619],[93.0538,13.3831],[93.06,13.3691]]],[[[92.8285,13.2105],[92.8255,13.2372],[92.8504,13.2386],[92.8631,13.1848],[92.839,13.2459],[92.8704,13.2583],[92.8111,13.2708],[92.8408,13.3012],[92.8205,13.3108],[92.83,13.3691],[92.8494,13.3778],[92.8544,13.3592],[92.8697,13.3907],[92.8404,13.3885],[92.8421,13.4096],[92.8705,13.414],[92.8857,13.3672],[92.8858,13.398],[92.9248,13.3902],[92.889,13.3949],[92.8968,13.4126],[92.8745,13.4021],[92.8732,13.4364],[92.899,13.4288],[92.8708,13.4451],[92.8689,13.474],[92.8982,13.4651],[92.9019,13.4963],[92.9249,13.4989],[92.9204,13.455],[92.9348,13.5],[92.9133,13.5124],[92.9452,13.5201],[92.9144,13.5204],[92.9136,13.5351],[92.9652,13.55],[92.9906,13.5179],[92.9821,13.5694],[93.0105,13.5487],[93.0273,13.5794],[93.0432,13.5049],[93.0337,13.4659],[93.0051,13.4633],[93.0299,13.4611],[93.0366,13.4413],[92.9891,13.4274],[93.039,13.4279],[93.0463,13.4046],[93.0611,13.4215],[93.0685,13.3966],[93.047,13.3746],[92.9992,13.3959],[92.9796,13.3799],[93.0032,13.3896],[93.0141,13.3707],[93.0343,13.3744],[93.0314,13.3439],[92.9992,13.3505],[92.9842,13.328],[92.973,13.3593],[92.9454,13.351],[92.9612,13.3231],[92.9484,13.3174],[92.997,13.3149],[92.9739,13.2819],[93,13.2809],[92.9864,13.2992],[93.0025,13.3039],[93.021,13.2968],[93.0111,13.2768],[93.0457,13.2827],[93.0437,13.2543],[93.0658,13.2738],[93.0318,13.1786],[93.0343,13.0814],[93.0034,13.0282],[92.9664,13.0297],[92.9747,13.0142],[92.9596,13.0142],[92.9332,13.0422],[92.9567,13.0656],[92.9373,13.0654],[92.9412,13.1455],[92.9226,13.0535],[92.8871,13.0933],[92.873,13.1491],[92.8888,13.1079],[92.8732,13.1035],[92.889,13.1071],[92.9121,13.0668],[92.8858,13.0454],[92.858,13.0799],[92.8436,13.0509],[92.8603,13.0656],[92.8636,13.0437],[92.9146,13.0555],[92.9211,13.0397],[92.8953,13.0181],[92.9105,13.0075],[92.8943,13.0111],[92.933,12.9913],[92.9394,12.9688],[92.9105,12.9453],[92.883,13.0055],[92.8707,12.9356],[92.8513,12.961],[92.84,12.9499],[92.8588,12.9179],[92.8448,12.9126],[92.8749,12.9082],[92.8728,12.8837],[92.8423,12.8769],[92.8426,12.8922],[92.8014,12.8997],[92.79,12.9609],[92.7994,12.9918],[92.8221,12.9772],[92.807,12.999],[92.842,12.9914],[92.8228,13.0074],[92.8371,13.0231],[92.8128,13.0218],[92.8143,13.0069],[92.788,13.0195],[92.7928,13.092],[92.8141,13.0723],[92.8056,13.1009],[92.8206,13.0912],[92.8294,13.1089],[92.8085,13.1273],[92.8472,13.1182],[92.8484,13.1502],[92.8079,13.1538],[92.8142,13.1747],[92.8492,13.1611],[92.816,13.1835],[92.8285,13.2105]]],[[[93.0155,13.677],[93.0326,13.6312],[93.0198,13.6221],[93.0134,13.6433],[92.9713,13.6497],[93.0155,13.677]]],[[[86.7879,20.3835],[86.7932,20.4932],[86.8082,20.4531],[86.7879,20.3835]]],[[[72.7676,21.657],[72.8159,21.6528],[72.8256,21.6344],[72.7932,21.6084],[72.6951,21.5885],[72.6422,21.5322],[72.5752,21.5323],[72.5802,21.5857],[72.6005,21.5779],[72.5988,21.5487],[72.6174,21.547],[72.607,21.5876],[72.6266,21.6288],[72.7676,21.657]]],[[[88.5086,21.5922],[88.5372,21.578],[88.5356,21.5276],[88.4848,21.5522],[88.4935,21.5947],[88.5086,21.5922]]],[[[88.834,21.608],[88.8919,21.5812],[88.906,21.5476],[88.8761,21.5344],[88.8312,21.5512],[88.834,21.608]]],[[[88.3094,21.7049],[88.3514,21.6773],[88.3443,21.6276],[88.3178,21.6052],[88.3094,21.7049]]],[[[88.7498,21.6496],[88.769,21.656],[88.8,21.5912],[88.742,21.5622],[88.7086,21.5847],[88.7188,21.6347],[88.6844,21.6843],[88.6925,21.7202],[88.7018,21.6879],[88.7498,21.6496]]],[[[88.4152,21.7252],[88.4281,21.7025],[88.4111,21.6558],[88.4319,21.6204],[88.3969,21.5899],[88.3809,21.6629],[88.4042,21.7166],[88.3688,21.727],[88.3958,21.7546],[88.4152,21.7252]]],[[[88.3877,21.7628],[88.3633,21.7259],[88.3945,21.7132],[88.3571,21.6865],[88.3384,21.7116],[88.3437,21.7548],[88.3877,21.7628]]],[[[88.6084,21.7846],[88.6297,21.7515],[88.6109,21.7048],[88.5971,21.7157],[88.6217,21.74],[88.5874,21.7572],[88.6084,21.7846]]],[[[88.4222,21.8106],[88.4714,21.7925],[88.4528,21.7184],[88.4715,21.6739],[88.434,21.6037],[88.4191,21.6829],[88.4325,21.7044],[88.3834,21.7777],[88.4222,21.8106]]],[[[88.5797,21.7174],[88.6086,21.6815],[88.591,21.6583],[88.6027,21.6125],[88.5262,21.6629],[88.5063,21.7584],[88.5423,21.8114],[88.5733,21.7885],[88.5601,21.7679],[88.5797,21.7174]]],[[[88.1486,21.8497],[88.171,21.8093],[88.1713,21.7401],[88.1532,21.682],[88.1342,21.6785],[88.1451,21.639],[88.1187,21.6254],[88.0573,21.6394],[88.0414,21.6756],[88.0768,21.7774],[88.1318,21.8736],[88.1486,21.8497]]],[[[88.5617,21.8972],[88.5762,21.8831],[88.553,21.8767],[88.552,21.8166],[88.5309,21.8477],[88.5505,21.8794],[88.5414,21.9022],[88.5617,21.8972]]],[[[88.6486,21.9179],[88.6701,21.9124],[88.6446,21.7879],[88.592,21.7976],[88.5848,21.845],[88.6486,21.9179]]],[[[88.9373,21.9148],[89.0313,21.864],[89.0195,21.7662],[89.0936,21.6637],[89.0681,21.6174],[89.0292,21.6351],[89.0265,21.6582],[89.0238,21.6029],[88.9542,21.6272],[88.9387,21.6461],[88.9513,21.6939],[88.9213,21.7215],[88.9208,21.7624],[88.9147,21.7162],[88.9401,21.689],[88.923,21.6323],[88.8841,21.6612],[88.8772,21.7666],[88.8351,21.7828],[88.8532,21.8889],[88.819,21.9293],[88.8597,21.9127],[88.9118,21.9309],[88.9373,21.9148]]],[[[88.568,21.9585],[88.61,21.9247],[88.5836,21.8916],[88.5501,21.9224],[88.5444,21.9709],[88.568,21.9585]]],[[[88.6032,21.9912],[88.6104,21.9293],[88.5765,21.9606],[88.5781,21.9821],[88.6032,21.9912]]],[[[88.9436,22.0009],[88.9876,21.9715],[89.0098,21.9803],[88.9886,21.951],[89.017,21.9264],[89.0123,21.903],[88.9288,21.9451],[88.9436,22.0009]]],[[[69.6289,22.4589],[69.6568,22.4269],[69.6365,22.4057],[69.5903,22.4307],[69.6289,22.4589]]],[[[69.1375,22.4762],[69.1447,22.4504],[69.1154,22.4668],[69.0844,22.4222],[69.094,22.4609],[69.1375,22.4762]]],[[[74.7119,37.0638],[74.7494,37.0194],[74.7691,37.0412],[74.8389,37.0358],[74.8348,37.0053],[74.9156,36.9203],[75.0157,36.9907],[75.1092,36.9619],[75.211,37.05],[75.3413,37.0608],[75.3544,36.9885],[75.4184,36.9724],[75.4069,36.908],[75.4498,36.8889],[75.4633,36.8303],[75.6127,36.7753],[75.7444,36.6077],[75.807,36.5634],[76.0712,36.4842],[76.164,36.4065],[76.2665,36.3588],[76.3539,36.3694],[76.4375,36.3104],[76.4368,36.2578],[76.481,36.2197],[76.5941,36.1783],[76.6559,36.1922],[76.7111,36.1401],[76.7201,36.0977],[76.8137,36.0406],[76.7321,35.9546],[76.783,35.9052],[76.8075,35.8497],[77.001,35.7756],[77.1157,35.7981],[77.1764,35.7681],[77.1797,35.7302],[77.213,35.7333],[77.2583,35.7043],[77.2874,35.7226],[77.3211,35.701],[77.3355,35.7198],[77.3659,35.7152],[77.4116,35.6563],[77.4379,35.6561],[77.4401,35.6021],[77.4719,35.5843],[77.4652,35.55],[77.4828,35.5296],[77.4305,35.5137],[77.3887,35.5394],[77.332,35.5303],[77.3852,35.4739],[77.4437,35.4595],[77.4961,35.4778],[77.6286,35.465],[77.6531,35.4812],[77.6852,35.4668],[77.7288,35.4773],[77.7359,35.5211],[77.7863,35.488],[77.8292,35.5051],[77.9121,35.4611],[77.9293,35.4903],[77.9853,35.4483],[77.9393,35.5069],[77.9679,35.5718],[77.9578,35.6049],[78.0556,35.5818],[78.0844,35.552],[78.1368,35.5366],[78.1649,35.5517],[78.1698,35.625],[78.1974,35.6228],[78.212,35.666],[78.2656,35.6474],[78.2845,35.6645],[78.277,35.7184],[78.4039,35.7358],[78.4427,35.7836],[78.5342,35.7625],[78.6464,35.8211],[78.6733,35.8542],[78.7862,35.8689],[78.8391,35.8561],[78.9692,35.8902],[79.0322,35.8477],[79.1647,35.8382],[79.2128,35.8779],[79.2045,35.9277],[79.2309,35.9722],[79.358,35.9917],[79.4104,35.986],[79.4402,35.8941],[79.5362,35.8796],[79.7511,35.7969],[79.899,35.7751],[79.9677,35.8252],[80.0157,35.8262],[80.1289,35.6567],[80.2131,35.6387],[80.3117,35.588],[80.3451,35.4612],[80.2985,35.417],[80.2975,35.3529],[80.2427,35.208],[80.185,35.1306],[80.1869,35.008],[80.1272,34.8725],[80.075,34.8054],[80.0653,34.6929],[79.9447,34.6609],[79.8783,34.6749],[79.7766,34.6104],[79.7944,34.5805],[79.7698,34.5378],[79.821,34.5145],[79.8161,34.4831],[79.7914,34.4668],[79.5984,34.4868],[79.5222,34.4636],[79.5316,34.4088],[79.5689,34.4006],[79.5921,34.2358],[79.5401,34.1913],[79.5131,34.2009],[79.4937,34.1847],[79.496,34.1244],[79.4211,34.0759],[79.4145,34.0417],[79.4374,34.0126],[79.4155,33.999],[79.3737,34.0268],[79.2829,34.0276],[79.1729,34.0583],[79.148,34.0551],[79.1382,34.0175],[79.1127,34.0089],[79.0011,34.0336],[78.9532,34.0131],[78.9183,33.9639],[79.0132,33.7829],[79.0605,33.7758],[79.0161,33.7023],[79.0463,33.6738],[79.078,33.6861],[79.1002,33.6163],[78.9029,33.622],[78.9063,33.5737],[78.9438,33.5261],[78.9271,33.4543],[78.9784,33.3364],[79.1077,33.2891],[79.2237,33.2963],[79.4461,33.2577],[79.443,33.2004],[79.3732,33.1064],[79.3803,33.0277],[79.3249,33.0122],[79.369,32.9662],[79.3976,32.9618],[79.5384,32.7861],[79.5944,32.7595],[79.6096,32.7232],[79.4293,32.5235],[79.3845,32.5228],[79.373,32.5605],[79.3053,32.5858],[79.2598,32.5227],[79.1821,32.4738],[79.125,32.465],[79.1352,32.4323],[79.0937,32.3771],[79.0035,32.3749],[78.9712,32.3357],[78.8067,32.4442],[78.7592,32.5678],[78.7824,32.5958],[78.7433,32.655],[78.7507,32.6928],[78.7087,32.6561],[78.6484,32.6439],[78.6053,32.5911],[78.5655,32.6148],[78.4513,32.5776],[78.4073,32.5261],[78.4612,32.5038],[78.4609,32.4618],[78.4958,32.422],[78.5335,32.4155],[78.4848,32.3491],[78.4834,32.2814],[78.4608,32.2417],[78.588,32.2361],[78.6147,32.2088],[78.5962,32.1578],[78.6177,32.1152],[78.6566,32.1115],[78.7189,32.0357],[78.7886,31.9932],[78.7099,31.7866],[78.7412,31.7576],[78.7284,31.7417],[78.754,31.6856],[78.7982,31.6818],[78.807,31.6471],[78.8533,31.6074],[78.7284,31.5148],[78.7362,31.4806],[78.7666,31.4864],[78.8128,31.4497],[78.8166,31.4193],[78.792,31.3955],[78.8588,31.3664],[78.8546,31.3235],[78.8988,31.2627],[78.9327,31.2529],[78.9476,31.3195],[79.0108,31.3571],[79.0617,31.4613],[79.1274,31.4349],[79.2465,31.33],[79.2392,31.3142],[79.2719,31.2832],[79.2519,31.243],[79.2926,31.2212],[79.3175,31.1367],[79.3988,31.1078],[79.4246,31.0711],[79.4248,31.0305],[79.519,31.0267],[79.5525,30.9601],[79.6035,30.9327],[79.665,30.9829],[79.7171,30.976],[79.753,31.0079],[79.8164,30.9739],[79.8627,30.9754],[79.9291,30.8824],[79.9622,30.89],[80.056,30.8415],[80.1109,30.7793],[80.1778,30.8041],[80.2149,30.7491],[80.2397,30.7621],[80.2364,30.6904],[80.1997,30.683],[80.1972,30.6621],[80.2212,30.6418],[80.2268,30.5789],[80.2578,30.5588],[80.2831,30.5722],[80.3856,30.515],[80.4156,30.5253],[80.5391,30.4492],[80.598,30.4788],[80.752,30.3935],[80.8216,30.3156],[81.0332,30.2464],[81.0433,30.2046],[80.96,30.179],[80.9183,30.1898],[80.9197,30.2142],[80.9027,30.2154],[80.8678,30.1739],[80.8748,30.1265],[80.761,30.0495],[80.7468,30.0058],[80.6745,29.9572],[80.6018,29.9581],[80.5531,29.8513],[80.4939,29.7958],[80.435,29.806],[80.4069,29.7947],[80.3974,29.7589],[80.3659,29.7484],[80.3842,29.6751],[80.4203,29.6383],[80.4079,29.596],[80.3785,29.5611],[80.3425,29.5528],[80.3497,29.5192],[80.2869,29.477],[80.3018,29.4528],[80.2422,29.4429],[80.2422,29.4114],[80.2751,29.393],[80.2801,29.347],[80.3169,29.3152],[80.2974,29.2049],[80.286,29.1958],[80.2488,29.2212],[80.2405,29.2025],[80.2721,29.1413],[80.233,29.1185],[80.1832,29.1372],[80.1429,29.0995],[80.1354,29.0074],[80.1179,28.9815],[80.1005,28.9869],[80.0585,28.9166],[80.0748,28.8245],[80.1181,28.829],[80.216,28.7556],[80.2566,28.7543],[80.2565,28.7292],[80.3171,28.7001],[80.361,28.6353],[80.4508,28.6295],[80.4687,28.5835],[80.5176,28.552],[80.5306,28.5726],[80.5034,28.6651],[80.5395,28.6908],[80.5687,28.6881],[80.5905,28.68],[80.5894,28.648],[80.6676,28.6422],[80.6904,28.5876],[80.7145,28.5684],[80.7686,28.5659],[80.7892,28.5245],[80.8659,28.4896],[80.8615,28.5044],[80.8961,28.507],[80.9154,28.4576],[80.9426,28.4689],[80.932,28.4589],[80.9517,28.4476],[80.9802,28.4552],[80.9646,28.4448],[80.9788,28.4342],[81.0168,28.4513],[81.0338,28.3989],[81.0357,28.4136],[81.0797,28.3851],[81.2106,28.3608],[81.2345,28.3247],[81.2326,28.2891],[81.3209,28.1976],[81.3213,28.1689],[81.302,28.1648],[81.3281,28.1481],[81.318,28.1337],[81.3711,28.1435],[81.3735,28.1773],[81.4467,28.161],[81.484,28.1186],[81.4783,28.0827],[81.624,28.0016],[81.6984,27.9882],[81.885,27.857],[81.9258,27.8598],[81.9683,27.9291],[82.07,27.9236],[82.1214,27.8658],[82.2083,27.8436],[82.4487,27.6793],[82.7077,27.7229],[82.7115,27.6653],[82.7558,27.5878],[82.7355,27.5024],[82.9293,27.5012],[82.9541,27.4677],[83.0346,27.4487],[83.1879,27.4543],[83.2722,27.3833],[83.2724,27.3526],[83.3176,27.3302],[83.3592,27.3433],[83.4093,27.4128],[83.3839,27.4363],[83.4017,27.4575],[83.3882,27.4798],[83.6143,27.4694],[83.8638,27.347],[83.8832,27.3766],[83.8331,27.4251],[83.8483,27.4464],[84.0269,27.4335],[84.0948,27.489],[84.0977,27.5171],[84.1459,27.5187],[84.1491,27.4859],[84.2054,27.4704],[84.2089,27.4426],[84.2543,27.454],[84.2924,27.3848],[84.6219,27.3369],[84.6911,27.2148],[84.6745,27.0959],[84.6462,27.0756],[84.6434,27.0461],[84.7567,27.0028],[84.7734,27.0177],[84.7936,26.9958],[84.8254,27.0209],[84.8916,26.9697],[84.9626,26.9605],[84.9785,26.9401],[84.9681,26.9161],[85.0612,26.8866],[85.024,26.8544],[85.1908,26.8698],[85.1767,26.8096],[85.211,26.7584],[85.3345,26.7417],[85.4077,26.7913],[85.4519,26.7814],[85.4956,26.797],[85.5756,26.861],[85.5857,26.8474],[85.6239,26.8738],[85.7211,26.8204],[85.7322,26.6539],[85.8177,26.6028],[85.8513,26.6087],[85.8514,26.5685],[85.9482,26.614],[85.9601,26.651],[86.0276,26.6668],[86.1388,26.6288],[86.1363,26.6063],[86.1922,26.6148],[86.2177,26.5885],[86.2527,26.6171],[86.3329,26.6191],[86.4986,26.5421],[86.5415,26.5387],[86.5703,26.4966],[86.7314,26.4226],[86.7665,26.4594],[86.8338,26.4391],[86.8942,26.4619],[86.8917,26.4862],[86.93,26.4897],[86.9322,26.517],[87.0154,26.532],[87.0447,26.5872],[87.0718,26.5858],[87.0917,26.4503],[87.1626,26.4039],[87.2611,26.4093],[87.266,26.3739],[87.3125,26.3716],[87.3411,26.3475],[87.3689,26.4079],[87.4638,26.4395],[87.6104,26.3808],[87.6519,26.3934],[87.6776,26.4355],[87.7648,26.4099],[87.7895,26.4694],[87.8488,26.4365],[87.8883,26.4868],[87.9269,26.4178],[87.9919,26.3926],[88.0066,26.361],[88.0305,26.3649],[88.0345,26.3919],[88.0956,26.4391],[88.098,26.5379],[88.1603,26.6364],[88.1872,26.7487],[88.174,26.8653],[88.1364,26.8985],[88.1447,26.9225],[88.1201,26.9507],[88.1344,26.9862],[88.0921,27.0047],[88.0777,27.0354],[88.0378,27.0363],[88.021,27.0878],[87.9868,27.119],[88.0192,27.1711],[88.032,27.2864],[88.0669,27.3358],[88.0416,27.3729],[88.0751,27.4332],[88.0441,27.4958],[88.1972,27.7912],[88.1736,27.8203],[88.2022,27.8371],[88.1964,27.8538],[88.1399,27.8775],[88.1196,27.916],[88.1452,27.9641],[88.2053,27.9416],[88.208,27.9617],[88.2372,27.9708],[88.2511,27.9424],[88.3523,27.9899],[88.3991,27.978],[88.4956,28.0539],[88.5508,28.0376],[88.5525,28.0814],[88.6193,28.0981],[88.61,28.1287],[88.6721,28.0723],[88.7563,28.076],[88.8363,28.0148],[88.8369,27.9288],[88.87,27.9156],[88.8877,27.8562],[88.8558,27.8153],[88.8652,27.7427],[88.838,27.7063],[88.8484,27.668],[88.8153,27.6461],[88.7913,27.5751],[88.7638,27.5648],[88.7928,27.5289],[88.777,27.4685],[88.8062,27.4068],[88.8377,27.3792],[88.861,27.3865],[88.9193,27.3206],[88.9033,27.2726],[88.8031,27.2478],[88.788,27.1841],[88.7461,27.1443],[88.87,27.1098],[88.8771,26.9444],[88.9217,26.9939],[88.9525,26.9684],[88.9439,26.9341],[88.9803,26.9172],[89.0216,26.9407],[89.0489,26.8991],[89.0957,26.8917],[89.1007,26.8425],[89.1345,26.8076],[89.2624,26.8138],[89.3185,26.8513],[89.379,26.8622],[89.3898,26.8419],[89.4395,26.8403],[89.4695,26.8027],[89.5602,26.8129],[89.6499,26.7767],[89.6238,26.7184],[89.6579,26.7187],[89.6718,26.7398],[89.7241,26.7223],[89.7528,26.7353],[89.7714,26.701],[89.8631,26.7006],[89.8629,26.7371],[90.0495,26.7304],[90.1945,26.7733],[90.1877,26.8068],[90.2252,26.8548],[90.3003,26.8482],[90.3478,26.8753],[90.3572,26.9007],[90.4175,26.9045],[90.5466,26.8166],[90.7173,26.7683],[91.0541,26.781],[91.0976,26.822],[91.2369,26.812],[91.3372,26.7809],[91.376,26.7952],[91.4076,26.8396],[91.4951,26.7912],[91.6255,26.8209],[91.6898,26.8065],[91.8241,26.864],[91.8591,26.9133],[91.8917,26.9191],[91.9835,26.8582],[92.0567,26.8474],[92.1027,26.8672],[92.121,26.9604],[92.1035,27.004],[92.0784,27.0174],[92.0817,27.0408],[92.0441,27.0514],[92.0305,27.081],[92.0267,27.1683],[92.0584,27.1903],[92.0726,27.2331],[92.0377,27.2574],[92.0738,27.2785],[92.1199,27.2718],[92.1228,27.2874],[92.0646,27.327],[92.0482,27.3631],[92.0585,27.3997],[92.0163,27.4808],[91.9534,27.46],[91.8486,27.4865],[91.767,27.4648],[91.7146,27.4745],[91.6951,27.5053],[91.6525,27.483],[91.6123,27.5437],[91.5822,27.5568],[91.566,27.5839],[91.5844,27.6082],[91.5622,27.6319],[91.5731,27.6607],[91.6285,27.6994],[91.6451,27.7694],[91.6146,27.8219],[91.5667,27.8179],[91.5563,27.8562],[91.6632,27.853],[91.7098,27.808],[91.7613,27.8],[91.8207,27.816],[91.8622,27.7397],[91.9277,27.7226],[91.9935,27.7712],[92.0514,27.7639],[92.2187,27.8695],[92.2775,27.8691],[92.3128,27.7885],[92.3851,27.8006],[92.4163,27.8306],[92.4563,27.8141],[92.5034,27.854],[92.5562,27.8244],[92.6153,27.8945],[92.6577,27.9019],[92.7424,27.9926],[92.7207,28.0305],[92.6665,28.0638],[92.6879,28.1274],[92.8148,28.211],[92.8361,28.1791],[92.9627,28.2586],[92.9973,28.2294],[93.0283,28.2687],[93.0223,28.3104],[93.218,28.3261],[93.2242,28.4055],[93.1805,28.4349],[93.2777,28.5013],[93.3016,28.599],[93.3334,28.6391],[93.446,28.6747],[93.4705,28.6527],[93.4961,28.686],[93.5224,28.6591],[93.6194,28.6534],[93.7399,28.6846],[93.7841,28.6634],[93.8506,28.707],[93.9356,28.6661],[93.973,28.7432],[94.0103,28.7728],[93.9867,28.8038],[94.0072,28.8407],[94.1645,28.9575],[94.2241,29.0878],[94.2937,29.1454],[94.3625,29.1526],[94.3749,29.185],[94.4381,29.2232],[94.5507,29.2208],[94.631,29.3412],[94.7413,29.2747],[94.793,29.2153],[94.8041,29.1624],[94.8787,29.175],[95.0224,29.1339],[94.9753,29.1565],[94.9928,29.1708],[95.0951,29.1396],[95.1064,29.1189],[95.2417,29.1106],[95.242,29.0636],[95.2601,29.0541],[95.2879,29.0626],[95.4107,29.0305],[95.4665,29.0665],[95.481,29.1431],[95.5307,29.1305],[95.5269,29.2157],[95.5722,29.2228],[95.583,29.2606],[95.6193,29.2497],[95.7769,29.3617],[95.7821,29.3414],[95.831,29.3588],[95.8617,29.3951],[95.9418,29.3877],[96.0428,29.4607],[96.0812,29.4611],[96.1406,29.4021],[96.1799,29.3075],[96.2355,29.2419],[96.2896,29.2446],[96.3543,29.2921],[96.3791,29.2671],[96.342,29.1784],[96.245,29.1658],[96.1736,29.0992],[96.1021,29.079],[96.1409,29.0583],[96.1715,28.9992],[96.1718,28.9698],[96.1349,28.9352],[96.1609,28.8978],[96.3269,29.028],[96.4231,29.0375],[96.5136,29.074],[96.4647,28.9831],[96.4812,28.9585],[96.5094,28.9664],[96.5261,28.8825],[96.609,28.7798],[96.5793,28.7116],[96.4669,28.6752],[96.4874,28.6389],[96.4745,28.6218],[96.402,28.5809],[96.4,28.5593],[96.3448,28.554],[96.3186,28.526],[96.3621,28.4803],[96.2534,28.407],[96.3167,28.3776],[96.3626,28.3864],[96.3955,28.3359],[96.4174,28.3409],[96.4571,28.4138],[96.5054,28.411],[96.5707,28.4523],[96.6411,28.4578],[96.7408,28.4138],[96.7703,28.367],[96.8345,28.3607],[96.8897,28.3785],[96.9876,28.3033],[97.0753,28.3496],[97.1057,28.347],[97.1711,28.2857],[97.2953,28.2619],[97.3784,28.2178],[97.4028,28.1819],[97.3638,28.1891],[97.3279,28.1502],[97.3472,28.1105],[97.3104,28.0745],[97.3258,28.0527],[97.3809,28.0593],[97.3757,28.0402],[97.4129,28.0148],[97.373,27.968],[97.3736,27.8802],[97.309,27.915],[97.249,27.8993],[97.104,27.7697],[97.0938,27.7401],[97.0362,27.7424],[96.9831,27.6643],[96.9417,27.6607],[96.8967,27.6093],[96.9298,27.5242],[96.9032,27.4527],[96.9623,27.4016],[96.9981,27.319],[97.0283,27.3079],[97.1639,27.1422],[97.1385,27.091],[97.1003,27.1084],[97.0634,27.0915],[96.9848,27.1543],[96.8744,27.1807],[96.8548,27.2102],[96.8852,27.2265],[96.8847,27.2597],[96.847,27.2711],[96.7967,27.3456],[96.7049,27.372],[96.6975,27.3577],[96.6053,27.3655],[96.5957,27.3339],[96.5239,27.2865],[96.4406,27.3063],[96.3868,27.2846],[96.3073,27.2943],[96.271,27.2715],[96.228,27.2787],[96.023,27.1801],[95.946,27.0516],[95.8701,27.0127],[95.802,27.0145],[95.7241,26.8822],[95.667,26.9029],[95.6319,26.8736],[95.6085,26.8129],[95.5431,26.8354],[95.5287,26.8253],[95.4314,26.7007],[95.3029,26.6508],[95.259,26.6555],[95.2568,26.6766],[95.2342,26.6825],[95.1489,26.6159],[95.1542,26.5831],[95.1075,26.5415],[95.1145,26.5185],[95.062,26.4497],[95.0845,26.4471],[95.0998,26.3937],[95.1321,26.3778],[95.1146,26.2329],[95.1427,26.2116],[95.122,26.1852],[95.1179,26.1011],[95.1859,26.0731],[95.1261,25.9858],[95.0895,25.9505],[95.0314,25.9311],[95.0118,25.8978],[95.049,25.7594],[94.936,25.6676],[94.9151,25.6077],[94.8817,25.591],[94.8985,25.5653],[94.8459,25.5619],[94.7835,25.4804],[94.7514,25.4939],[94.6836,25.4664],[94.6697,25.4183],[94.6346,25.395],[94.5756,25.2141],[94.6058,25.1813],[94.737,25.1342],[94.7442,25.0373],[94.6966,24.9685],[94.7134,24.9344],[94.6319,24.8395],[94.6294,24.757],[94.6051,24.7123],[94.5497,24.7128],[94.5292,24.618],[94.4031,24.4753],[94.3976,24.4073],[94.3671,24.3946],[94.3801,24.3746],[94.354,24.3345],[94.3272,24.3277],[94.3153,24.2527],[94.2599,24.1623],[94.2515,24.0819],[94.1869,23.9413],[94.1654,23.9296],[94.154,23.8532],[94.1207,23.8328],[94.0843,23.8814],[93.9305,23.9503],[93.8074,23.9271],[93.7542,24.0054],[93.6234,24.0109],[93.5917,23.9606],[93.5598,23.9821],[93.5501,23.9592],[93.5048,23.9422],[93.4635,23.9734],[93.4072,24.0797],[93.3486,24.1048],[93.3538,24.0905],[93.3285,24.0812],[93.3286,23.9854],[93.3508,23.9416],[93.3931,23.9288],[93.3916,23.7567],[93.4073,23.7072],[93.4369,23.687],[93.4165,23.6476],[93.4286,23.5883],[93.388,23.4464],[93.4016,23.3837],[93.3876,23.3594],[93.3558,23.3519],[93.3886,23.2169],[93.3682,23.1441],[93.3856,23.1338],[93.3557,23.1161],[93.3393,23.0738],[93.3521,23.0704],[93.2935,23.0064],[93.2295,23.0116],[93.1846,23.0595],[93.1561,23.0432],[93.1363,23.0606],[93.1267,23.0439],[93.1202,23.0024],[93.1406,22.99],[93.138,22.9506],[93.1645,22.9105],[93.1312,22.9061],[93.0947,22.8062],[93.1074,22.7526],[93.0955,22.6725],[93.1403,22.5923],[93.1066,22.527],[93.1282,22.5237],[93.1387,22.4545],[93.1853,22.4282],[93.2019,22.2631],[93.1421,22.2455],[93.1615,22.1971],[93.1508,22.1763],[93.1236,22.1735],[93.111,22.204],[93.0382,22.195],[93.0372,22.1444],[93.0596,22.1013],[93.0045,22.1036],[93.0074,21.9823],[92.9806,21.9801],[92.9522,22.0297],[92.9272,22.0156],[92.9056,21.9402],[92.8634,22.0627],[92.8411,22.0594],[92.8099,22.0959],[92.6998,22.1551],[92.6797,22.0116],[92.6516,22.0159],[92.6349,21.9832],[92.6032,21.9776],[92.6027,22.0611],[92.5626,22.128],[92.5785,22.1434],[92.6057,22.1234],[92.6092,22.164],[92.5521,22.409],[92.5513,22.5133],[92.5217,22.5599],[92.5394,22.5891],[92.5287,22.6652],[92.5132,22.7328],[92.4738,22.7462],[92.4492,22.895],[92.4337,22.8858],[92.4203,22.9183],[92.4011,22.912],[92.3718,22.9362],[92.3924,23.0565],[92.358,23.1033],[92.3682,23.1273],[92.3468,23.2357],[92.4042,23.2407],[92.3644,23.3229],[92.3791,23.3618],[92.3564,23.3723],[92.3574,23.4107],[92.3171,23.4717],[92.3082,23.5777],[92.273,23.6419],[92.2915,23.6812],[92.2791,23.7164],[92.241,23.7207],[92.2163,23.6519],[92.2029,23.7057],[92.1777,23.7076],[92.1708,23.7392],[92.1487,23.7356],[92.0633,23.645],[92.0087,23.6635],[91.9783,23.7331],[91.957,23.734],[91.9579,23.6944],[91.934,23.6846],[91.9704,23.4783],[91.9367,23.4666],[91.9426,23.435],[91.8997,23.4406],[91.845,23.4047],[91.8251,23.3523],[91.7624,23.3029],[91.8101,23.1651],[91.8135,23.0992],[91.8358,23.093],[91.806,23.063],[91.7745,23.0696],[91.7806,23.0291],[91.7685,23.0409],[91.7206,22.9874],[91.6455,22.985],[91.6194,22.9384],[91.6061,22.9719],[91.5768,22.9652],[91.5425,22.9995],[91.5504,23.0384],[91.5305,23.0383],[91.5298,23.0917],[91.5031,23.1305],[91.5153,23.145],[91.4909,23.1576],[91.5075,23.1837],[91.4708,23.1964],[91.4844,23.2092],[91.4506,23.2194],[91.4703,23.2276],[91.4452,23.2471],[91.4542,23.2604],[91.4183,23.2554],[91.4089,23.2852],[91.3799,23.1845],[91.4174,23.0648],[91.3959,23.056],[91.347,23.1023],[91.3233,23.158],[91.3266,23.2523],[91.3002,23.2925],[91.3132,23.3063],[91.2899,23.3185],[91.3201,23.3601],[91.2911,23.3507],[91.2493,23.4902],[91.2008,23.52],[91.2129,23.5504],[91.1945,23.5472],[91.1597,23.6113],[91.1563,23.6707],[91.1994,23.6466],[91.2085,23.6864],[91.1542,23.6884],[91.1571,23.742],[91.1966,23.7511],[91.219,23.7364],[91.2541,23.837],[91.2296,23.8806],[91.2462,23.9131],[91.233,23.927],[91.2762,23.9225],[91.2642,23.9442],[91.2847,23.9821],[91.2998,23.9721],[91.3036,23.9979],[91.3795,23.9753],[91.3733,24.0026],[91.3966,24.0496],[91.3746,24.1078],[91.5861,24.0726],[91.5945,24.0965],[91.6379,24.1029],[91.6344,24.1381],[91.6601,24.1895],[91.6477,24.2185],[91.6652,24.2335],[91.6883,24.1621],[91.7594,24.1415],[91.745,24.247],[91.8164,24.2099],[91.8447,24.2258],[91.8454,24.1914],[91.9021,24.1369],[91.9408,24.2681],[91.92,24.3375],[91.9568,24.3566],[91.996,24.3221],[91.9705,24.3845],[92.0904,24.3716],[92.1219,24.3822],[92.1368,24.425],[92.1646,24.4189],[92.155,24.523],[92.1695,24.5318],[92.2125,24.5037],[92.2238,24.5175],[92.2544,24.678],[92.296,24.7365],[92.2792,24.7453],[92.2889,24.7845],[92.2731,24.8274],[92.2415,24.842],[92.2481,24.8855],[92.2329,24.9001],[92.2994,24.9157],[92.4001,24.8487],[92.4879,24.8713],[92.4875,24.9469],[92.4497,24.9386],[92.4675,24.9637],[92.4201,24.9663],[92.4253,25.0295],[92.3415,25.0485],[92.3486,25.0735],[92.3349,25.0784],[92.3106,25.069],[92.2276,25.0937],[92.1962,25.108],[92.2194,25.117],[92.1893,25.1363],[92.1839,25.1179],[92.1596,25.1266],[92.1329,25.1601],[92.0739,25.1849],[92.0038,25.1862],[91.9717,25.1676],[91.9163,25.1813],[91.7746,25.1631],[91.756,25.1775],[91.7476,25.1402],[91.7038,25.16],[91.6918,25.1371],[91.6379,25.1225],[91.6021,25.1427],[91.6097,25.177],[91.471,25.1336],[91.4686,25.1518],[91.2866,25.1854],[91.268,25.2072],[91.0696,25.1984],[90.862,25.1576],[90.7804,25.1861],[90.7333,25.1549],[90.666,25.1658],[90.6634,25.1979],[90.6409,25.1745],[90.5086,25.1754],[90.4411,25.1445],[90.3302,25.1938],[90.1181,25.2235],[89.9808,25.2809],[89.9667,25.3037],[89.9492,25.2927],[89.907,25.3077],[89.8766,25.2853],[89.8316,25.2959],[89.8414,25.315],[89.8196,25.3807],[89.8493,25.4928],[89.8696,25.5109],[89.8513,25.5386],[89.8825,25.6172],[89.8505,25.713],[89.8279,25.7295],[89.8403,25.7667],[89.8165,25.8143],[89.8326,25.8706],[89.8871,25.9452],[89.8254,25.9455],[89.871,25.9808],[89.8358,26.0126],[89.8359,25.9824],[89.8203,25.9876],[89.8086,26.0434],[89.7906,26.0178],[89.8018,26.0403],[89.7737,26.0376],[89.7988,26.0596],[89.7949,26.0875],[89.7562,26.1094],[89.7666,26.1305],[89.7477,26.1574],[89.6813,26.1636],[89.7021,26.174],[89.6735,26.2014],[89.6915,26.2117],[89.6791,26.238],[89.6719,26.2198],[89.6344,26.2294],[89.65,26.1902],[89.6278,26.1839],[89.6555,26.1814],[89.6493,26.1644],[89.6088,26.1806],[89.61,26.1543],[89.5912,26.1573],[89.6042,26.1175],[89.6304,26.1184],[89.5939,26.1022],[89.6086,26.0884],[89.63,26.107],[89.6501,26.0632],[89.6054,26.0638],[89.6128,26.0526],[89.5787,26.0263],[89.5779,25.9693],[89.5404,25.97],[89.5409,26.0059],[89.4804,25.9961],[89.4308,26.0111],[89.4238,26.0469],[89.3928,26.0072],[89.3554,26.0083],[89.3004,26.0504],[89.2758,26.0491],[89.2811,26.0656],[89.2544,26.0641],[89.2668,26.0926],[89.2294,26.1239],[89.1554,26.1386],[89.1573,26.1632],[89.1346,26.1812],[89.1409,26.2358],[89.1001,26.2795],[89.1047,26.3158],[89.1221,26.2871],[89.1363,26.3201],[89.0836,26.322],[89.1013,26.3365],[89.0797,26.3628],[89.0874,26.3976],[88.994,26.4128],[88.9833,26.4465],[88.9558,26.4602],[88.9654,26.4515],[88.9462,26.4479],[88.9448,26.4256],[88.9262,26.4321],[88.9266,26.4068],[88.9048,26.4085],[88.9186,26.3599],[88.9584,26.3617],[88.9524,26.3322],[88.9614,26.3523],[88.9872,26.3483],[88.9957,26.2902],[89.0069,26.3044],[89.0184,26.2898],[89.0216,26.309],[89.0201,26.2891],[89.0451,26.2751],[89.0595,26.2934],[89.0507,26.2417],[88.9573,26.2403],[88.9263,26.2838],[88.8983,26.2886],[88.8614,26.2727],[88.8779,26.2334],[88.8417,26.2307],[88.8129,26.256],[88.8191,26.2945],[88.7936,26.31],[88.6662,26.2627],[88.6751,26.3201],[88.7465,26.3224],[88.7339,26.3287],[88.7453,26.3479],[88.7028,26.3344],[88.681,26.3794],[88.7023,26.3884],[88.6238,26.4348],[88.6229,26.4711],[88.5948,26.4706],[88.593,26.4498],[88.5609,26.4565],[88.5568,26.4848],[88.5265,26.4814],[88.5214,26.5105],[88.4898,26.5104],[88.485,26.5407],[88.4372,26.5441],[88.4161,26.6316],[88.3984,26.626],[88.3319,26.4818],[88.3548,26.447],[88.3712,26.4882],[88.4852,26.4603],[88.5234,26.3608],[88.4824,26.3497],[88.4577,26.3767],[88.4356,26.3358],[88.4044,26.3298],[88.4149,26.3148],[88.3847,26.3133],[88.3497,26.2822],[88.3505,26.2204],[88.2418,26.1891],[88.1773,26.1481],[88.1584,26.0798],[88.1833,26.0729],[88.1695,26.0452],[88.1832,26.0268],[88.1397,26.0129],[88.1224,25.9484],[88.086,25.916],[88.0942,25.8734],[88.1107,25.8679],[88.1145,25.7979],[88.1515,25.7756],[88.1838,25.8017],[88.2095,25.7868],[88.2363,25.8094],[88.2696,25.8082],[88.2665,25.7824],[88.3743,25.7171],[88.3715,25.6965],[88.4017,25.6726],[88.4538,25.6649],[88.4444,25.5969],[88.4999,25.5839],[88.4935,25.5588],[88.5331,25.5421],[88.54,25.5083],[88.6091,25.5163],[88.6484,25.4964],[88.6471,25.4778],[88.6995,25.4712],[88.7075,25.4999],[88.7688,25.4985],[88.7587,25.5252],[88.8109,25.5229],[88.8393,25.4583],[88.83,25.4169],[88.8123,25.4105],[88.8409,25.3976],[88.8402,25.3638],[88.8851,25.3256],[88.9063,25.3377],[88.9295,25.3041],[89.0089,25.3031],[89.0079,25.2649],[88.9868,25.2745],[88.9562,25.2549],[88.9618,25.2091],[88.9364,25.2105],[88.9488,25.1766],[88.9231,25.1649],[88.8753,25.1793],[88.8438,25.2138],[88.8059,25.1705],[88.7694,25.1898],[88.7491,25.1769],[88.7115,25.2077],[88.6127,25.2042],[88.5656,25.1751],[88.4991,25.2104],[88.4437,25.1973],[88.4614,25.1494],[88.4414,25.1275],[88.4529,25.0793],[88.435,25.056],[88.4527,25.0369],[88.4121,24.9988],[88.3988,24.9453],[88.3409,24.9406],[88.3243,24.9168],[88.347,24.8924],[88.3306,24.8701],[88.2761,24.8978],[88.2583,24.8776],[88.2605,24.9192],[88.2261,24.9597],[88.138,24.9362],[88.175,24.8602],[88.1319,24.836],[88.1363,24.8053],[88.1235,24.8231],[88.1061,24.7796],[88.0683,24.7692],[88.0628,24.7216],[88.0088,24.6678],[88.1408,24.5112],[88.1984,24.4625],[88.2719,24.4406],[88.334,24.3814],[88.4464,24.3786],[88.5271,24.3444],[88.5551,24.2933],[88.5677,24.3267],[88.6285,24.3051],[88.6966,24.3154],[88.7354,24.2765],[88.7314,24.1734],[88.7465,24.1471],[88.6932,24.1112],[88.7416,24.0571],[88.7248,24.0416],[88.7575,24.0321],[88.729,23.9961],[88.7602,24.0061],[88.7689,23.9822],[88.7382,23.983],[88.7334,23.911],[88.7064,23.9163],[88.6676,23.8694],[88.5756,23.8616],[88.6021,23.8172],[88.556,23.7842],[88.5808,23.7605],[88.5582,23.6492],[88.5938,23.6408],[88.5801,23.603],[88.6455,23.6093],[88.6543,23.5562],[88.7251,23.5118],[88.7414,23.4797],[88.7749,23.4798],[88.786,23.5072],[88.8008,23.4971],[88.7953,23.443],[88.7643,23.4482],[88.7493,23.4006],[88.7654,23.3679],[88.732,23.352],[88.7453,23.3078],[88.7304,23.3196],[88.7254,23.2987],[88.7103,23.3129],[88.6964,23.3023],[88.7244,23.2716],[88.7189,23.2548],[88.7695,23.2448],[88.7898,23.2183],[88.8114,23.2215],[88.8115,23.2561],[88.8238,23.2334],[88.9069,23.236],[88.9146,23.2135],[88.9426,23.2061],[88.9759,23.2244],[88.9957,23.2147],[88.9797,23.2129],[88.9804,23.1825],[88.9623,23.1931],[88.9391,23.1768],[88.9179,23.1291],[88.8684,23.1011],[88.8798,23.0063],[88.8451,23.0099],[88.871,22.9786],[88.8594,22.9432],[88.8943,22.952],[88.9094,22.8799],[88.9454,22.8807],[88.9686,22.8443],[88.9579,22.7959],[88.911,22.7577],[88.9279,22.7181],[88.9624,22.695],[88.9271,22.6496],[88.9349,22.6212],[88.9601,22.6166],[88.9407,22.5613],[88.9961,22.469],[89.0001,22.4298],[88.9719,22.4099],[88.9943,22.3887],[88.9845,22.3267],[89.0245,22.2972],[88.9951,22.2863],[89.0716,22.1969],[89.0718,22.1463],[89.0985,22.1534],[89.0379,22.0942],[89.0769,22.0084],[89.069,21.9329],[89.0351,21.927],[88.9974,21.9502],[89.0141,21.9767],[89.0012,21.9864],[89.0304,22.001],[88.9883,21.9744],[88.9536,22.0122],[88.9178,21.9809],[88.9151,22.0085],[88.9025,22.0039],[88.897,21.9241],[88.8057,21.9381],[88.799,21.9221],[88.8398,21.8864],[88.8215,21.7814],[88.8647,21.7614],[88.8412,21.7169],[88.8615,21.6409],[88.8456,21.6191],[88.8045,21.6372],[88.8224,21.667],[88.8146,21.7107],[88.7627,21.702],[88.7938,21.737],[88.7905,21.75],[88.7559,21.7353],[88.7672,21.7633],[88.7501,21.7705],[88.7811,21.8252],[88.7455,21.7732],[88.7598,21.7618],[88.7524,21.7333],[88.7776,21.7213],[88.7565,21.703],[88.8099,21.7045],[88.8079,21.6627],[88.7448,21.6608],[88.7114,21.6896],[88.6938,21.7453],[88.7255,21.9795],[88.7515,22.0062],[88.7102,21.996],[88.6786,21.9431],[88.6307,21.9544],[88.6349,22.0108],[88.5948,21.9887],[88.5712,22.0004],[88.5745,21.9616],[88.5349,21.9687],[88.5687,21.9041],[88.541,21.9074],[88.5388,21.8632],[88.5186,21.8756],[88.5372,21.8565],[88.4496,21.9057],[88.418,21.9026],[88.4507,21.9049],[88.483,21.872],[88.4879,21.8404],[88.4474,21.813],[88.4604,21.7924],[88.4174,21.8132],[88.3746,21.7681],[88.3428,21.7613],[88.3443,21.721],[88.3273,21.7265],[88.3208,21.7087],[88.283,21.7895],[88.2615,21.7322],[88.3012,21.6824],[88.2844,21.6007],[88.3103,21.5813],[88.254,21.5584],[88.2185,21.6159],[88.2331,21.6688],[88.1998,21.6827],[88.2204,21.7019],[88.2153,21.778],[88.1634,21.8837],[88.1711,21.9286],[88.1498,21.9569],[88.2147,22.0386],[88.2244,22.0899],[88.2053,22.1645],[88.1686,22.1972],[88.0702,22.2112],[88.0846,22.2563],[88.0606,22.2058],[87.9559,22.2697],[87.947,22.2558],[87.9832,22.2142],[87.9752,22.2334],[88.0102,22.2013],[88.1359,22.1848],[88.1905,22.1142],[88.1537,22.0636],[88.05,22.0138],[88.0037,21.906],[87.9406,21.8235],[87.8833,21.7933],[87.8076,21.7052],[87.7472,21.7001],[87.7127,21.6653],[87.5536,21.638],[87.3619,21.5578],[87.25,21.5568],[87.1185,21.5171],[86.8925,21.3184],[86.8294,21.2086],[86.8563,21.2056],[86.8415,21.1751],[86.8479,21.0955],[86.9809,20.857],[86.9674,20.7914],[86.9442,20.7665],[86.9925,20.7702],[87,20.6978],[87.0582,20.7168],[86.7753,20.5208],[86.7343,20.4641],[86.7244,20.3938],[86.7392,20.4008],[86.7464,20.3786],[86.7762,20.4054],[86.7973,20.3758],[86.7788,20.3566],[86.798,20.3634],[86.7475,20.307],[86.6798,20.2642],[86.6693,20.2757],[86.6802,20.2599],[86.5204,20.1701],[86.414,19.9973],[86.378,19.9668],[86.4082,19.9697],[86.1938,19.8888],[85.8619,19.8051],[85.637,19.7255],[85.3228,19.5704],[84.9333,19.2788],[84.815,19.1621],[84.6845,18.9675],[84.5865,18.8667],[84.5519,18.791],[84.4697,18.7144],[84.3547,18.5549],[84.1474,18.3734],[84.1269,18.3134],[83.8604,18.1743],[83.8099,18.156],[83.795,18.1684],[83.8053,18.154],[83.6048,18.0373],[83.5318,17.9511],[83.4587,17.9011],[83.3464,17.7261],[83.2165,17.5955],[82.5619,17.2616],[82.3193,17.0578],[82.2649,16.9389],[82.2779,16.9507],[82.2414,16.908],[82.2483,16.8765],[82.2598,16.8845],[82.3142,16.8459],[82.3616,16.8544],[82.3577,16.95],[82.3263,16.9883],[82.3556,16.9678],[82.3653,16.876],[82.3333,16.7167],[82.3449,16.7046],[82.3277,16.6849],[82.3464,16.7156],[82.3653,16.7067],[82.3173,16.6623],[82.3189,16.5768],[82.3128,16.668],[82.3121,16.6271],[82.3075,16.6399],[82.2843,16.626],[82.2988,16.5864],[82.2631,16.563],[82.2972,16.5676],[82.29,16.5549],[82.2992,16.5722],[82.3137,16.5587],[82.2349,16.546],[81.9577,16.3924],[81.8782,16.3826],[81.7208,16.3069],[81.6906,16.3275],[81.4872,16.3551],[81.3938,16.3425],[81.3054,16.3035],[81.2462,16.2589],[81.2138,16.2072],[81.1914,16.1028],[81.1455,16.0129],[81.148,15.9737],[81.0048,15.8378],[81.0206,15.793],[81.0113,15.8015],[81.0145,15.7713],[80.9985,15.7697],[81.0085,15.7529],[80.9372,15.7144],[80.8215,15.7093],[80.7884,15.7572],[80.7996,15.7768],[80.7912,15.7536],[80.8223,15.7104],[80.7796,15.8353],[80.8009,15.8058],[80.8156,15.8107],[80.807,15.8404],[80.7739,15.8663],[80.6806,15.8854],[80.5365,15.8523],[80.4286,15.8047],[80.2887,15.6934],[80.2372,15.6007],[80.2206,15.6009],[80.2347,15.5991],[80.2224,15.5827],[80.2351,15.5906],[80.2248,15.5335],[80.1942,15.505],[80.205,15.4739],[80.1218,15.3679],[80.0847,15.2833],[80.089,15.2119],[80.047,15.0786],[80.0977,14.7795],[80.1955,14.5858],[80.1686,14.3549],[80.1301,14.2312],[80.1338,14.0969],[80.2506,13.796],[80.2352,13.6475],[80.326,13.4417],[80.3453,13.2799],[80.2594,12.9346],[80.2552,12.7827],[80.1571,12.4683],[79.879,12.0545],[79.8046,11.8335],[79.7607,11.6244],[79.7675,11.5117],[79.8426,11.3507],[79.8584,11.1293],[79.8533,10.6794],[79.841,10.6763],[79.8533,10.6765],[79.8804,10.3047],[79.8603,10.2824],[79.8168,10.2758],[79.8133,10.2887],[79.8139,10.2756],[79.7801,10.2725],[79.7834,10.2961],[79.7487,10.3144],[79.7775,10.2846],[79.7677,10.2718],[79.5307,10.3092],[79.5441,10.3249],[79.3959,10.3186],[79.2985,10.2633],[79.2683,10.2328],[79.2774,10.2133],[79.2415,10.1849],[79.2191,10.1126],[79.2271,10.0736],[79.2661,10.0392],[79.1389,9.9209],[79.124,9.8836],[79.1113,9.8928],[79.12,9.8537],[79.085,9.8347],[79.0586,9.7725],[79.0159,9.7323],[79.0132,9.7448],[78.9252,9.585],[78.9005,9.4683],[79.0131,9.3324],[79.0711,9.295],[79.1841,9.2828],[79.2659,9.2927],[79.318,9.3258],[79.3352,9.312],[79.315,9.2831],[79.324,9.2636],[79.4355,9.1578],[79.3096,9.2421],[79.2198,9.2573],[79.2092,9.2824],[79.0807,9.2612],[78.9789,9.2749],[78.8611,9.2554],[78.7326,9.2119],[78.7173,9.1895],[78.6638,9.1936],[78.6422,9.1747],[78.6571,9.1577],[78.5782,9.131],[78.5309,9.1381],[78.4087,9.1113],[78.215,8.966],[78.1866,8.9236],[78.1581,8.797],[78.1871,8.7641],[78.1991,8.7875],[78.1983,8.7611],[78.163,8.7413],[78.1256,8.6651],[78.1306,8.4969],[78.0639,8.418],[78.0674,8.3733],[77.8029,8.2402],[77.7447,8.1769],[77.5771,8.1367],[77.5509,8.078],[77.3158,8.1218],[77.0112,8.3547],[76.6314,8.8365],[76.5467,8.9039],[76.4991,9.0582],[76.3302,9.4412],[76.2412,9.9676],[76.1003,10.3815],[75.9101,10.7861],[75.8467,11.0629],[75.7308,11.3583],[75.6816,11.4496],[75.6168,11.4764],[75.5606,11.6429],[75.509,11.7311],[75.3858,11.8563],[75.3557,11.8598],[75.2503,12.0082],[75.2291,12.0226],[75.2011,12.0061],[74.8244,12.8491],[74.7164,13.3126],[74.6936,13.3437],[74.6685,13.6402],[74.6099,13.8656],[74.5692,13.9468],[74.514,13.9869],[74.4689,14.1887],[74.4417,14.2246],[74.3557,14.5209],[74.3102,14.5214],[74.3147,14.5457],[74.2704,14.6272],[74.2864,14.6342],[74.2825,14.6765],[74.2493,14.7412],[74.2038,14.7364],[74.2084,14.7176],[74.1772,14.7506],[74.1521,14.7471],[74.1414,14.7792],[74.119,14.7743],[74.0928,14.804],[74.1243,14.805],[74.1248,14.8395],[74.0959,14.8982],[74.0442,14.9166],[74.041,14.9954],[73.9895,15.0189],[73.9884,15.0551],[73.9129,15.0836],[73.9368,15.1322],[73.9565,15.1355],[73.8792,15.3619],[73.8424,15.3584],[73.7837,15.4081],[73.7897,15.4638],[73.6894,15.718],[73.7263,15.717],[73.7394,15.7345],[73.6832,15.7203],[73.6499,15.7449],[73.6644,15.7531],[73.6563,15.7958],[73.6261,15.8518],[73.587,15.9106],[73.5101,15.9405],[73.4844,16.0337],[73.4564,16.0528],[73.4649,16.0869],[73.4396,16.1913],[73.3109,16.5414],[73.3453,16.5726],[73.3174,16.6017],[73.3552,16.619],[73.3305,16.6199],[73.3391,16.6378],[73.323,16.6386],[73.3297,16.6874],[73.3044,16.7659],[73.3191,16.7953],[73.2891,16.8443],[73.303,16.8914],[73.2786,16.893],[73.2997,16.9819],[73.2712,16.9851],[73.2841,17.0111],[73.2554,17.0277],[73.2582,17.0488],[73.277,17.0363],[73.2867,17.0543],[73.2825,17.1072],[73.2529,17.1894],[73.2316,17.1991],[73.2434,17.2252],[73.1906,17.2993],[73.2227,17.3063],[73.2292,17.2825],[73.2588,17.286],[73.2356,17.2881],[73.2056,17.3873],[73.1833,17.3841],[73.1673,17.4044],[73.1987,17.4391],[73.1845,17.4431],[73.1739,17.5169],[73.1371,17.5559],[73.1526,17.5994],[73.1136,17.6898],[73.1331,17.7244],[73.075,17.8825],[73.0308,17.9428],[73.0403,17.9784],[73.0051,18.0197],[73.0213,18.0275],[72.9904,18.0558],[72.9968,18.0842],[72.971,18.1329],[72.9887,18.1579],[72.9809,18.1963],[72.9318,18.2204],[72.938,18.2837],[72.973,18.2662],[72.9865,18.2823],[72.9539,18.335],[72.9152,18.3551],[72.9259,18.3834],[72.8937,18.4718],[72.9212,18.5506],[72.8781,18.6308],[72.8601,18.6335],[72.8658,18.8076],[72.9145,18.8003],[72.9452,18.8264],[72.9959,18.773],[72.9783,18.8076],[72.9993,18.8092],[72.9751,18.8395],[72.9954,18.8715],[72.961,18.841],[72.9183,18.8554],[72.9041,18.9044],[72.9371,18.9093],[72.9592,18.9572],[72.9471,18.9869],[72.8853,18.9815],[72.8782,19.0219],[72.8543,18.9972],[72.8434,18.9303],[72.8036,18.8988],[72.8236,18.9412],[72.7925,18.9499],[72.8386,19.0465],[72.817,19.0415],[72.8332,19.0848],[72.8116,19.1452],[72.7861,19.1335],[72.7955,19.1947],[72.7814,19.1954],[72.7787,19.2789],[72.7869,19.3077],[72.83,19.3346],[72.8002,19.3238],[72.7447,19.378],[72.7599,19.3927],[72.7495,19.4893],[72.7197,19.5008],[72.7111,19.5408],[72.7089,19.5988],[72.7253,19.6096],[72.6991,19.6615],[72.7081,19.7038],[72.6755,19.7157],[72.6828,19.7935],[72.642,19.844],[72.6481,19.8701],[72.6803,19.8649],[72.6642,19.9335],[72.722,19.9706],[72.7079,20.07],[72.7466,20.1161],[72.7566,20.2902],[72.7885,20.3468],[72.8233,20.3659],[72.8046,20.3723],[72.8201,20.4339],[72.8463,20.478],[72.8581,20.4656],[72.8859,20.4977],[72.898,20.5849],[72.8529,20.7568],[72.8202,20.7938],[72.8392,20.8052],[72.7802,20.9212],[72.82,20.9275],[72.8204,20.9523],[72.7547,20.9387],[72.7222,21.0377],[72.7262,21.061],[72.7489,21.0572],[72.7412,21.0745],[72.7025,21.0962],[72.6848,21.083],[72.6698,21.115],[72.6415,21.0852],[72.6199,21.1007],[72.6381,21.2111],[72.6574,21.2247],[72.6223,21.2426],[72.6003,21.2899],[72.6012,21.3886],[72.6873,21.4524],[72.6131,21.4001],[72.5796,21.4139],[72.7028,21.5257],[72.75,21.5275],[72.7702,21.5625],[72.7545,21.5663],[72.8022,21.5872],[72.8285,21.6509],[72.8679,21.6422],[72.8772,21.6726],[72.963,21.674],[72.8619,21.6876],[72.8013,21.6577],[72.7381,21.691],[72.6081,21.6881],[72.5436,21.6605],[72.5325,21.7181],[72.6072,21.7531],[72.61,21.7902],[72.593,21.8049],[72.6204,21.8299],[72.6234,21.8838],[72.6482,21.8973],[72.6913,21.8826],[72.6919,21.9419],[72.7194,21.9392],[72.7483,21.9675],[72.7252,21.9965],[72.7078,21.9534],[72.64,21.9568],[72.5454,21.911],[72.528,21.937],[72.5479,21.9644],[72.5259,21.9599],[72.5485,21.9911],[72.5432,22.1263],[72.581,22.1992],[72.65,22.2155],[72.7827,22.1576],[72.7828,22.1929],[72.8538,22.2389],[72.8492,22.2749],[72.699,22.1999],[72.6242,22.2339],[72.5437,22.2231],[72.3,22.0334],[72.2689,21.9706],[72.2117,21.9621],[72.2042,21.8911],[72.2425,21.8298],[72.2355,21.812],[72.2028,21.8191],[72.2828,21.697],[72.3061,21.626],[72.27,21.5726],[72.2354,21.456],[72.1078,21.3025],[72.0827,21.2451],[72.1121,21.1986],[72.0178,21.1539],[72.0102,21.1347],[71.8983,21.1099],[71.8131,21.0675],[71.7976,21.0552],[71.8059,21.0381],[71.7167,21.0208],[71.6471,20.9942],[71.6477,20.9747],[71.6075,20.978],[71.5656,20.949],[71.5167,20.9481],[71.5067,20.9188],[71.44,20.8695],[71.3799,20.8743],[71.3841,20.8568],[71.2092,20.8009],[71.1481,20.7583],[71.0865,20.7555],[71.0506,20.7304],[71.0054,20.7392],[70.977,20.7028],[70.878,20.7098],[70.8218,20.6914],[70.4377,20.8529],[70.1814,21.0361],[70.0477,21.1569],[69.616,21.6246],[69.2166,21.9575],[68.9582,22.2381],[68.9358,22.3118],[68.9771,22.4036],[69,22.4041],[68.9845,22.4134],[69.0681,22.4814],[69.0836,22.4746],[69.0497,22.4378],[69.0395,22.4457],[69.0355,22.3903],[69.0818,22.3882],[69.1105,22.4099],[69.128,22.3951],[69.1212,22.3756],[69.1758,22.423],[69.2009,22.4014],[69.1679,22.3733],[69.1809,22.3707],[69.1634,22.3486],[69.1539,22.2487],[69.1338,22.2226],[69.1482,22.195],[69.1903,22.2436],[69.2128,22.2103],[69.2376,22.2227],[69.2336,22.2499],[69.2528,22.2664],[69.2795,22.2699],[69.2838,22.2546],[69.2928,22.2868],[69.3361,22.3051],[69.3327,22.3278],[69.4232,22.316],[69.4903,22.3374],[69.4995,22.3663],[69.5404,22.3772],[69.5977,22.3462],[69.6174,22.3454],[69.6211,22.3718],[69.6554,22.3596],[69.6609,22.3962],[69.7022,22.3987],[69.6961,22.4525],[69.7307,22.4846],[69.7328,22.4428],[69.746,22.428],[69.7591,22.4433],[69.7897,22.4138],[69.7965,22.3777],[69.8328,22.4471],[69.871,22.423],[69.8878,22.4546],[69.9374,22.4633],[69.9398,22.4828],[69.9793,22.4682],[69.9877,22.5105],[70.0103,22.4999],[70.0731,22.5178],[70.0858,22.4941],[70.1163,22.501],[70.1202,22.4864],[70.1241,22.5126],[70.1847,22.5222],[70.1792,22.5675],[70.2635,22.6535],[70.2787,22.7253],[70.4133,22.8184],[70.4623,22.8313],[70.4911,22.8899],[70.5351,22.9121],[70.5397,22.9255],[70.4327,22.9671],[70.5417,22.9596],[70.5617,23.029],[70.6022,23.0343],[70.5971,23.0609],[70.6293,23.0625],[70.6937,23.1201],[70.7654,23.1454],[70.7676,23.167],[70.7918,23.1651],[70.7872,23.1507],[70.8161,23.1646],[70.8153,23.1369],[70.8345,23.1284],[70.8286,23.0799],[70.8582,23.1297],[70.8276,23.1574],[70.9592,23.1948],[70.8629,23.1924],[70.8733,23.204],[70.8602,23.2085],[70.8931,23.2247],[70.8331,23.2499],[70.8122,23.2301],[70.7677,23.2461],[70.728,23.2059],[70.6508,23.2239],[70.649,23.192],[70.579,23.1777],[70.5012,23.1781],[70.428,23.2175],[70.4248,23.2373],[70.3019,23.2237],[70.2676,23.1785],[70.2088,23.1604],[70.2073,23.1256],[70.1493,23.037],[70.2108,23.0746],[70.2264,22.9518],[70.1644,22.9383],[70.1211,22.9626],[70.1482,23.0348],[70.1181,22.9913],[70.0365,22.9527],[70.0168,22.9202],[69.7132,22.806],[69.6513,22.7958],[69.6459,22.81],[69.5756,22.8177],[69.4773,22.7955],[69.4573,22.8143],[69.4168,22.8109],[69.47,22.7764],[69.4947,22.7799],[69.4718,22.7737],[69.3812,22.8188],[69.1958,22.838],[68.813,23.0579],[68.8703,23.0272],[68.8152,23.077],[68.8118,23.0588],[68.7586,23.0803],[68.7785,23.0776],[68.7601,23.0998],[68.7836,23.12],[68.7459,23.11],[68.7122,23.1514],[68.6828,23.1527],[68.6596,23.1977],[68.6692,23.2182],[68.621,23.2057],[68.702,23.2401],[68.7147,23.2641],[68.7245,23.2551],[68.6993,23.2842],[68.7135,23.318],[68.6814,23.3118],[68.6605,23.3475],[68.6523,23.3031],[68.64,23.3232],[68.6526,23.3356],[68.6204,23.374],[68.5435,23.4202],[68.5306,23.4452],[68.5463,23.4651],[68.5288,23.4499],[68.4836,23.5487],[68.5106,23.6395],[68.529,23.6358],[68.5207,23.6496],[68.568,23.6849],[68.5483,23.6918],[68.5572,23.7166],[68.5872,23.7026],[68.5968,23.7241],[68.6322,23.7278],[68.6185,23.738],[68.6488,23.7389],[68.6353,23.761],[68.6518,23.7944],[68.6815,23.795],[68.7112,23.8302],[68.6927,23.8444],[68.5808,23.821],[68.527,23.7458],[68.421,23.7332],[68.3872,23.5948],[68.2781,23.5597],[68.1882,23.5818],[68.1854,23.5956],[68.2077,23.5862],[68.1779,23.6141],[68.1863,23.6453],[68.2085,23.6507],[68.1826,23.655],[68.2067,23.6689],[68.1817,23.7216],[68.2026,23.7667],[68.2066,23.872],[68.2799,23.9308],[68.3329,23.9251],[68.3477,23.9744],[68.753,23.9713],[68.7647,24.2958],[68.8082,24.3136],[68.8307,24.3119],[68.8648,24.2128],[68.9068,24.2798],[68.9453,24.3025],[68.9847,24.2276],[69.0053,24.2231],[69.0948,24.2745],[69.1938,24.2361],[69.3127,24.2816],[69.494,24.2678],[69.5944,24.2924],[69.7312,24.1711],[70.0251,24.1713],[70.0668,24.1992],[70.1099,24.295],[70.3685,24.3508],[70.5611,24.4209],[70.6025,24.4081],[70.562,24.3545],[70.5845,24.2904],[70.5712,24.2517],[70.7139,24.2157],[70.8055,24.2209],[70.9073,24.2588],[70.8757,24.2802],[70.8787,24.3014],[70.9865,24.3647],[71.0421,24.3513],[71.0819,24.3929],[71.1197,24.4025],[71.1255,24.4201],[71.1031,24.4357],[70.9986,24.4444],[71.0052,24.523],[70.9874,24.5434],[70.9863,24.5955],[71.0095,24.6354],[71.0964,24.6885],[70.9376,24.9386],[70.8887,25.1482],[70.7516,25.2778],[70.7368,25.3326],[70.6648,25.3969],[70.6785,25.5252],[70.6601,25.7022],[70.6089,25.715],[70.5302,25.6835],[70.387,25.6738],[70.2687,25.7136],[70.0998,25.9383],[70.0834,26.0833],[70.1434,26.1527],[70.175,26.2515],[70.1742,26.5514],[70.0562,26.6006],[69.8868,26.5789],[69.8231,26.589],[69.7197,26.6547],[69.5103,26.7435],[69.4844,26.8048],[69.5133,27.01],[69.5864,27.1826],[69.8625,27.4018],[69.9339,27.4978],[70.0259,27.5629],[70.1324,27.806],[70.3722,28.0118],[70.5058,28.037],[70.5895,28.0104],[70.6774,27.9218],[70.6844,27.8282],[70.7398,27.7419],[70.7593,27.7213],[70.8718,27.7056],[71.2055,27.8354],[71.3831,27.8726],[71.6664,27.8778],[71.8983,27.9612],[71.9274,28.1217],[72.0043,28.2187],[72.1322,28.3131],[72.2061,28.3943],[72.2992,28.6698],[72.3907,28.7704],[72.7331,28.9481],[72.9458,29.0279],[73.0044,29.153],[73.0844,29.2363],[73.2821,29.572],[73.3969,29.946],[73.597,30.019],[73.8066,30.068],[73.9723,30.1979],[73.9565,30.2761],[73.8798,30.3597],[73.9738,30.4438],[73.9263,30.4389],[73.9345,30.4903],[73.9641,30.4565],[73.982,30.504],[74.02,30.5142],[74.012,30.5336],[74.031,30.5269],[74.0392,30.5426],[74.0723,30.5229],[74.0909,30.5494],[74.0734,30.5547],[74.1021,30.5792],[74.096,30.6116],[74.1181,30.6079],[74.1274,30.6348],[74.1933,30.6652],[74.2327,30.7246],[74.2865,30.7357],[74.2602,30.7731],[74.302,30.7794],[74.3204,30.8466],[74.3821,30.8604],[74.3608,30.8737],[74.3659,30.8929],[74.4227,30.9078],[74.4164,30.9403],[74.5462,30.9924],[74.5682,31.0547],[74.5968,31.0377],[74.6959,31.0742],[74.6891,31.128],[74.6362,31.1183],[74.6031,31.1336],[74.6107,31.0993],[74.5713,31.0814],[74.5515,31.0864],[74.5484,31.1219],[74.5104,31.1319],[74.5327,31.2497],[74.5206,31.2689],[74.542,31.3038],[74.5263,31.312],[74.5517,31.3644],[74.5835,31.379],[74.6025,31.4205],[74.6546,31.426],[74.6365,31.4848],[74.5752,31.5012],[74.6129,31.5273],[74.6156,31.569],[74.5553,31.6078],[74.535,31.6776],[74.4866,31.715],[74.5037,31.7405],[74.5594,31.7579],[74.5579,31.8048],[74.6079,31.8904],[74.6363,31.8842],[74.6667,31.9227],[74.7192,31.9237],[74.7202,31.9414],[74.7556,31.9558],[74.8191,31.9587],[74.8289,31.9986],[74.88,32.032],[74.8795,32.0538],[74.928,32.0665],[75.0124,32.0357],[75.0687,32.0672],[75.1049,32.0586],[75.1229,32.0814],[75.1742,32.0675],[75.1985,32.0827],[75.2025,32.1202],[75.2403,32.0911],[75.3224,32.1795],[75.3164,32.208],[75.3721,32.2254],[75.3819,32.269],[75.3205,32.2974],[75.3379,32.3197],[75.3227,32.3435],[75.2581,32.3714],[75.2559,32.3893],[75.194,32.4005],[75.1898,32.4258],[75.1314,32.4089],[75.1014,32.4777],[75.0855,32.4688],[75.028,32.4971],[75.0193,32.4662],[74.9512,32.4475],[74.9379,32.4713],[74.8975,32.4684],[74.8773,32.493],[74.8188,32.4979],[74.7948,32.4764],[74.6879,32.4869],[74.6906,32.533],[74.6629,32.5445],[74.6738,32.568],[74.6525,32.563],[74.6588,32.5968],[74.639,32.6146],[74.6953,32.6613],[74.6535,32.6967],[74.7048,32.8419],[74.6405,32.8189],[74.6584,32.7877],[74.6323,32.7764],[74.6343,32.7495],[74.5629,32.7601],[74.5116,32.7455],[74.5116,32.7645],[74.4594,32.7877],[74.355,32.767],[74.3145,32.7968],[74.3034,32.8298],[74.2196,32.8488],[74.1788,32.8895],[74.069,32.9096],[74.0582,32.9345],[73.9997,32.9354],[74.0062,32.9549],[73.9646,32.9871],[73.8257,33.004],[73.826,32.9772],[73.7904,32.9668],[73.7945,33.0036],[73.7491,33.0336],[73.7428,33.0662],[73.6377,33.0846],[73.6312,33.1395],[73.6645,33.1613],[73.668,33.2019],[73.6476,33.2228],[73.6335,33.2076],[73.6142,33.2929],[73.5893,33.3235],[73.598,33.3375],[73.5784,33.3286],[73.5838,33.3557],[73.5652,33.3663],[73.6032,33.4191],[73.5867,33.4228],[73.5961,33.439],[73.6319,33.4476],[73.6021,33.4967],[73.6418,33.5285],[73.6119,33.6038],[73.5672,33.6177],[73.5675,33.6685],[73.6031,33.7151],[73.5946,33.7512],[73.5599,33.7813],[73.5935,33.8898],[73.5165,33.9988],[73.4909,34.1397],[73.4985,34.2112],[73.4728,34.2523],[73.4808,34.2894],[73.4567,34.2765],[73.4299,34.3463],[73.3961,34.3716],[73.4277,34.426],[73.4308,34.5213],[73.4538,34.5711],[73.5322,34.571],[73.5561,34.5898],[73.6503,34.562],[73.6538,34.6005],[73.695,34.6501],[73.6591,34.6731],[73.7299,34.7722],[73.7723,34.7961],[73.8218,34.7921],[73.8377,34.8132],[73.9194,34.8116],[73.961,34.8386],[73.9674,34.8638],[74.0299,34.8763],[74.0372,34.9192],[74.0712,34.9355],[74.0593,34.9927],[74.1097,35.0161],[74.0712,35.0585],[74.1014,35.0991],[74.1337,35.11],[74.1059,35.1257],[74.1123,35.1485],[74.0338,35.1469],[74.0028,35.1836],[73.9568,35.168],[73.9245,35.2039],[73.8612,35.2071],[73.8083,35.2395],[73.7335,35.2085],[73.708,35.2225],[73.725,35.273],[73.6948,35.3184],[73.6954,35.3691],[73.727,35.419],[73.792,35.4542],[73.7785,35.5229],[73.6284,35.569],[73.5616,35.5464],[73.4774,35.5719],[73.3981,35.5571],[73.3635,35.5972],[73.2687,35.6244],[73.1329,35.7108],[73.1265,35.7762],[73.1487,35.8312],[73.0839,35.8775],[73.0288,35.8471],[72.9871,35.8598],[72.9184,35.8391],[72.8924,35.8445],[72.8911,35.8737],[72.8393,35.8671],[72.8192,35.8817],[72.7843,35.8415],[72.7614,35.8323],[72.7266,35.8531],[72.6844,35.8225],[72.6281,35.8579],[72.5851,35.8594],[72.5582,35.8977],[72.5185,35.9055],[72.5128,35.9364],[72.5349,35.9506],[72.5393,35.9862],[72.5835,36.0171],[72.5688,36.0446],[72.5167,36.0673],[72.5276,36.1102],[72.5617,36.1399],[72.5358,36.1755],[72.5807,36.2526],[72.6189,36.2693],[72.6848,36.2439],[72.6806,36.271],[72.7592,36.2986],[72.8161,36.3564],[72.8537,36.3663],[72.8755,36.3946],[72.8597,36.4356],[72.9081,36.4609],[72.9794,36.4573],[72.9779,36.5115],[73.0519,36.533],[73.0972,36.606],[73.0741,36.6288],[73.0676,36.7006],[73.1164,36.6842],[73.1707,36.724],[73.2014,36.6955],[73.238,36.7115],[73.2941,36.7042],[73.3478,36.7164],[73.3516,36.735],[73.4214,36.743],[73.4976,36.7131],[73.5793,36.7224],[73.5927,36.6928],[73.6831,36.6866],[73.7099,36.7123],[73.7748,36.7021],[73.7956,36.7188],[73.8718,36.7014],[73.8853,36.7299],[73.868,36.7663],[73.837,36.7951],[73.8015,36.7942],[73.7976,36.8182],[73.7055,36.8378],[73.7062,36.858],[73.667,36.8809],[73.6711,36.9117],[73.9149,36.883],[73.9615,36.8393],[74.0465,36.8108],[74.0855,36.8415],[74.1335,36.8479],[74.1558,36.9105],[74.249,36.8936],[74.4264,36.9957],[74.523,36.9951],[74.5641,36.9579],[74.5804,37.021],[74.5681,37.0518],[74.6901,37.0881],[74.7074,37.0873],[74.7119,37.0638]]]]}}